TOMORROW-S3             
1 62392U 24247R   26068.49782200  .00007664  00000+0  28858-3 0  9991
2 62392  44.9999 117.9871 0000396 320.9462  39.1392 15.27672122 67708
STARLINK-33603          
1 63282U 25053T   26068.51802411  .00072060  00000+0  25977-2 0  9996
2 63282  42.9995 243.0323 0001568 285.3974  74.6704 15.27642092 56160
